"zip","city","county","pop"
"19120","Philadelphia","Philadelphia","74060"
"19124","Philadelphia","Philadelphia","70304"
"19111","Philadelphia","Philadelphia","68113"
"19143","Philadelphia","Philadelphia","64630"
"17603","Lancaster","Lancaster","64242"
"19134","Philadelphia","Philadelphia","62087"
"19149","Philadelphia","Philadelphia","58055"
"15601","Greensburg","Westmoreland","56955"
"19446","Lansdale","Montgomery","56720"
"19382","West Chester","Chester","55036"
"19020","Bensalem","Bucks","54985"
"19320","Coatesville","Chester","54617"
"19104","Philadelphia","Philadelphia","53560"
"19067","Morrisville","Bucks","52689"
"17601","Lancaster","Lancaster","52552"
"19148","Philadelphia","Philadelphia","52259"
"17331","Hanover","York","51893"
"19140","Philadelphia","Philadelphia","51766"
"19380","West Chester","Chester","50956"
"17602","Lancaster","Lancaster","50417"
"18102","Allentown","Lehigh","49497"
"19335","Downingtown","Chester","48962"
"15301","Washington","Washington","48813"
"19464","Pottstown","Montgomery","46904"
"19403","Norristown","Montgomery","46592"
"19139","Philadelphia","Philadelphia","46397"
"18103","Allentown","Lehigh","46393"
"19145","Philadelphia","Philadelphia","46052"
"16801","State College","Centre","45280"
"17543","Lititz","Lancaster","45051"
"18104","Allentown","Lehigh","44908"
"19131","Philadelphia","Philadelphia","44723"
"15642","Irwin","Westmoreland","44277"
"19144","Philadelphia","Philadelphia","43884"
"17701","Williamsport","Lycoming","43218"
"15237","Pittsburgh","Allegheny","42561"
"18042","Easton","Northampton","42299"
"19460","Phoenixville","Chester","42063"
"19401","Norristown","Montgomery","41897"
"19082","Upper Darby","Delaware","41741"
"15108","Coraopolis","Allegheny","40971"
"19426","Collegeville","Montgomery","40720"
"18974","Warminster","Bucks","40543"
"17403","York","York","40216"
"18702","Wilkes Barre","Luzerne","40090"
"18017","Bethlehem","Northampton","39453"
"19146","Philadelphia","Philadelphia","39282"
"15317","Canonsburg","Washington","39019"
"16001","Butler","Butler","38847"
"19147","Philadelphia","Philadelphia","38472"
"17042","Lebanon","Lebanon","38400"
"17050","Mechanicsburg","Cumberland","38141"
"17402","York","York","38078"
"18966","Southampton","Bucks","37739"
"19128","Philadelphia","Philadelphia","37644"
"17055","Mechanicsburg","Cumberland","37232"
"15068","New Kensington","Westmoreland","37035"
"19083","Havertown","Delaware","36633"
"17011","Camp Hill","Cumberland","36532"
"19152","Philadelphia","Philadelphia","36379"
"17013","Carlisle","Cumberland","36184"
"17404","York","York","35899"
"17112","Harrisburg","Dauphin","35818"
"19063","Media","Delaware","35764"
"19135","Philadelphia","Philadelphia","35427"
"19606","Reading","Berks","35413"
"19115","Philadelphia","Philadelphia","35346"
"18951","Quakertown","Bucks","35203"
"19013","Chester","Delaware","35134"
"19154","Philadelphia","Philadelphia","35098"
"19116","Philadelphia","Philadelphia","34747"
"19136","Philadelphia","Philadelphia","34741"
"19141","Philadelphia","Philadelphia","34701"
"15235","Pittsburgh","Allegheny","34545"
"19047","Langhorne","Bucks","34479"
"17522","Ephrata","Lancaster","34163"
"15701","Indiana","Indiana","34052"
"18015","Bethlehem","Northampton","33447"
"19151","Philadelphia","Philadelphia","33343"
"19601","Reading","Berks","33208"
"19138","Philadelphia","Philadelphia","32766"
"19087","Wayne","Delaware","32765"
"17111","Harrisburg","Dauphin","32624"
"16101","New Castle","Lawrence","32616"
"19121","Philadelphia","Philadelphia","32385"
"19002","Ambler","Montgomery","32241"
"19114","Philadelphia","Philadelphia","31668"
"16601","Altoona","Blair","31545"
"19038","Glenside","Montgomery","31415"
"19132","Philadelphia","Philadelphia","31378"
"18018","Bethlehem","Northampton","31304"
"15001","Aliquippa","Beaver","31081"
"17046","Lebanon","Lebanon","31040"
"15401","Uniontown","Fayette","31031"
"17022","Elizabethtown","Lancaster","30855"
"16066","Cranberry Twp","Butler","30719"
"19026","Drexel Hill","Delaware","30573"
"18704","Kingston","Luzerne","30441"
"16823","Bellefonte","Centre","30367"
"15221","Pittsburgh","Allegheny","30169"
"17815","Bloomsburg","Columbia","29764"
"18301","East Stroudsburg","Monroe","29660"
"15102","Bethel Park","Allegheny","29616"
"17257","Shippensburg","Cumberland","29524"
"15206","Pittsburgh","Allegheny","29460"
"17268","Waynesboro","Franklin","29374"
"19142","Philadelphia","Philadelphia","29078"
"19454","North Wales","Montgomery","28977"
"16602","Altoona","Blair","28968"
"18940","Newtown","Bucks","28915"
"15236","Pittsburgh","Allegheny","28574"
"15227","Pittsburgh","Allegheny","28466"
"17325","Gettysburg","Adams","28391"
"19604","Reading","Berks","28346"
"19119","Philadelphia","Philadelphia","28192"
"19050","Lansdowne","Delaware","27976"
"15213","Pittsburgh","Allegheny","27878"
"18901","Doylestown","Bucks","27851"
"15044","Gibsonia","Allegheny","27735"
"15146","Monroeville","Allegheny","27678"
"18052","Whitehall","Lehigh","27678"
"15217","Pittsburgh","Allegheny","27575"
"18360","Stroudsburg","Monroe","27468"
"16335","Meadville","Crawford","27419"
"15010","Beaver Falls","Beaver","27380"
"15212","Pittsburgh","Allegheny","27141"
"19133","Philadelphia","Philadelphia","27102"
"19130","Philadelphia","Philadelphia","27093"
"15650","Latrobe","Westmoreland","27029"
"18201","Hazleton","Luzerne","26983"
"18045","Easton","Northampton","26881"
"16509","Erie","Erie","26863"
"19355","Malvern","Chester","26778"
"17315","Dover","York","26610"
"18064","Nazareth","Northampton","26396"
"17201","Chambersburg","Franklin","26330"
"19053","Feasterville Trevose","Bucks","26293"
"15210","Pittsburgh","Allegheny","26241"
"19468","Royersford","Montgomery","26008"
"16510","Erie","Erie","25952"
"19125","Philadelphia","Philadelphia","25850"
"18062","Macungie","Lehigh","25769"
"16803","State College","Centre","25708"
"15101","Allison Park","Allegheny","25493"
"18944","Perkasie","Bucks","25475"
"19406","King Of Prussia","Montgomery","25105"
"19438","Harleysville","Montgomery","24780"
"17110","Harrisburg","Dauphin","24743"
"19064","Springfield","Delaware","24664"
"16506","Erie","Erie","24438"
"17109","Harrisburg","Dauphin","24351"
"19103","Philadelphia","Philadelphia","24214"
"19348","Kennett Square","Chester","23934"
"17406","York","York","23651"
"19607","Reading","Berks","23494"
"19018","Clifton Heights","Delaware","23445"
"17057","Middletown","Dauphin","23029"
"15090","Wexford","Allegheny","23016"
"19608","Reading","Berks","22935"
"15136","Mc Kees Rocks","Allegheny","22881"
"17901","Pottsville","Schuylkill","22670"
"15216","Pittsburgh","Allegheny","22580"
"17036","Hummelstown","Dauphin","22390"
"19150","Philadelphia","Philadelphia","22299"
"19023","Darby","Delaware","22088"
"19006","Huntingdon Valley","Montgomery","21899"
"18411","Clarks Summit","Lackawanna","21878"
"17545","Manheim","Lancaster","21792"
"19122","Philadelphia","Philadelphia","21666"
"17078","Palmyra","Lebanon","21646"
"18505","Scranton","Lackawanna","21581"
"19010","Bryn Mawr","Delaware","21572"
"15205","Pittsburgh","Allegheny","21475"
"17356","Red Lion","York","21302"
"18914","Chalfont","Bucks","21182"
"15143","Sewickley","Allegheny","21150"
"15132","Mc Keesport","Allegheny","21136"
"17044","Lewistown","Mifflin","20986"
"19007","Bristol","Bucks","20944"
"19008","Broomall","Delaware","20934"
"19040","Hatboro","Montgomery","20901"
"19014","Aston","Delaware","20900"
"17225","Greencastle","Franklin","20844"
"15241","Pittsburgh","Allegheny","20732"
"18976","Warrington","Bucks","20681"
"15239","Pittsburgh","Allegheny","20603"
"18504","Scranton","Lackawanna","20525"
"18020","Bethlehem","Northampton","20393"
"19061","Marcus Hook","Delaware","20248"
"17104","Harrisburg","Dauphin","20208"
"17552","Mount Joy","Lancaster","20071"
"19027","Elkins Park","Montgomery","20068"
"19605","Reading","Berks","19833"
"19073","Newtown Square","Delaware","19763"
"15122","West Mifflin","Allegheny","19745"
"15905","Johnstown","Cambria","19739"
"15106","Carnegie","Allegheny","19667"
"17837","Lewisburg","Union","19660"
"15202","Pittsburgh","Allegheny","19569"
"18603","Berwick","Columbia","19357"
"19440","Hatfield","Montgomery","19350"
"18235","Lehighton","Carbon","19188"
"15425","Connellsville","Fayette","19136"
"15801","Du Bois","Clearfield","19018"
"19422","Blue Bell","Montgomery","18852"
"19342","Glen Mills","Delaware","18843"
"15644","Jeannette","Westmoreland","18537"
"15120","Homestead","Allegheny","18512"
"18612","Dallas","Luzerne","18432"
"17821","Danville","Montour","18402"
"17745","Lock Haven","Clinton","18397"
"19090","Willow Grove","Montgomery","18357"
"17019","Dillsburg","York","18237"
"18013","Bangor","Northampton","18037"
"17512","Columbia","Lancaster","18027"
"16652","Huntingdon","Huntingdon","17916"
"18067","Northampton","Northampton","17879"
"18109","Allentown","Lehigh","17794"
"17033","Hershey","Dauphin","17751"
"15220","Pittsburgh","Allegheny","17704"
"15228","Pittsburgh","Allegheny","17691"
"19046","Jenkintown","Montgomery","17660"
"16365","Warren","Warren","17639"
"18049","Emmaus","Lehigh","17578"
"19341","Exton","Chester","17572"
"19465","Pottstown","Chester","17473"
"19057","Levittown","Bucks","17449"
"18466","Tobyhanna","Monroe","17421"
"15147","Verona","Allegheny","17374"
"19123","Philadelphia","Philadelphia","17351"
"19363","Oxford","Chester","17274"
"19428","Conshohocken","Montgomery","17222"
"19001","Abington","Montgomery","17139"
"16701","Bradford","Mckean","17126"
"17401","York","York","17100"
"19512","Boyertown","Berks","17048"
"16117","Ellwood City","Lawrence","16999"
"16125","Greenville","Mercer","16974"
"16201","Kittanning","Armstrong","16971"
"18640","Pittston","Luzerne","16850"
"19015","Brookhaven","Delaware","16809"
"17517","Denver","Lancaster","16745"
"16046","Mars","Butler","16699"
"17025","Enola","Cumberland","16651"
"19525","Gilbertsville","Montgomery","16598"
"18040","Easton","Northampton","16586"
"19602","Reading","Berks","16582"
"15219","Pittsburgh","Allegheny","16545"
"19473","Schwenksville","Montgomery","16426"
"15025","Clairton","Allegheny","16298"
"15501","Somerset","Somerset","16254"
"19044","Horsham","Montgomery","16206"
"16508","Erie","Erie","16182"
"19054","Levittown","Bucks","16180"
"15057","Mc Donald","Washington","16167"
"16148","Hermitage","Mercer","16120"
"17070","New Cumberland","Cumberland","16119"
"19530","Kutztown","Berks","16116"
"16503","Erie","Erie","16089"
"19425","Chester Springs","Chester","15950"
"15904","Johnstown","Cambria","15943"
"15017","Bridgeville","Allegheny","15934"
"16505","Erie","Erie","15911"
"18707","Mountain Top","Luzerne","15891"
"18706","Wilkes Barre","Luzerne","15885"
"19462","Plymouth Meeting","Montgomery","15811"
"19508","Birdsboro","Berks","15796"
"15666","Mount Pleasant","Westmoreland","15795"
"16502","Erie","Erie","15752"
"17801","Sunbury","Northumberland","15701"
"19126","Philadelphia","Philadelphia","15656"
"16323","Franklin","Venango","15624"
"16127","Grove City","Mercer","15599"
"16504","Erie","Erie","15572"
"19518","Douglassville","Berks","15566"
"18969","Telford","Montgomery","15435"
"16301","Oil City","Venango","15418"
"19610","Reading","Berks","15417"
"17870","Selinsgrove","Snyder","15407"
"17067","Myerstown","Lebanon","15389"
"16002","Butler","Butler","15257"
"19056","Levittown","Bucks","15249"
"15009","Beaver","Beaver","15241"
"15012","Belle Vernon","Fayette","15220"
"16105","New Castle","Lawrence","15016"
"19390","West Grove","Chester","14684"
"18705","Wilkes Barre","Luzerne","14683"
"17557","New Holland","Lancaster","14668"
"16648","Hollidaysburg","Blair","14648"
"16057","Slippery Rock","Butler","14624"
"19107","Philadelphia","Philadelphia","14526"
"15370","Waynesburg","Greene","14440"
"15767","Punxsutawney","Jefferson","14374"
"18337","Milford","Pike","14226"
"18938","New Hope","Bucks","14156"
"18964","Souderton","Montgomery","14092"
"15116","Glenshaw","Allegheny","14061"
"19522","Fleetwood","Berks","14034"
"19055","Levittown","Bucks","14032"
"18036","Coopersburg","Lehigh","13942"
"18509","Scranton","Lackawanna","13851"
"18444","Moscow","Lackawanna","13817"
"15214","Pittsburgh","Allegheny","13713"
"19096","Wynnewood","Montgomery","13695"
"15229","Pittsburgh","Allegheny","13575"
"15613","Apollo","Westmoreland","13536"
"15226","Pittsburgh","Allegheny","13511"
"15234","Pittsburgh","Allegheny","13480"
"15218","Pittsburgh","Allegheny","13443"
"19003","Ardmore","Delaware","13427"
"18510","Scranton","Lackawanna","13375"
"16830","Clearfield","Clearfield","13264"
"16146","Sharon","Mercer","13242"
"16686","Tyrone","Blair","13198"
"18634","Nanticoke","Luzerne","13148"
"18407","Carbondale","Lackawanna","13119"
"17362","Spring Grove","York","13040"
"17350","New Oxford","Adams","13019"
"19153","Philadelphia","Philadelphia","13006"
"15243","Pittsburgh","Allegheny","12952"
"15238","Pittsburgh","Allegheny","12944"
"19036","Glenolden","Delaware","12894"
"18353","Saylorsburg","Monroe","12730"
"15066","New Brighton","Beaver","12654"
"18436","Lake Ariel","Wayne","12610"
"18508","Scranton","Lackawanna","12606"
"15215","Pittsburgh","Allegheny","12594"
"19106","Philadelphia","Philadelphia","12592"
"15857","Saint Marys","Elk","12567"
"15201","Pittsburgh","Allegheny","12543"
"18643","Pittston","Luzerne","12478"
"16635","Duncansville","Blair","12477"
"17566","Quarryville","Lancaster","12468"
"17740","Jersey Shore","Lycoming","12407"
"17754","Montoursville","Lycoming","12404"
"16137","Mercer","Mercer","12363"
"15061","Monaca","Beaver","12328"
"17103","Harrisburg","Dauphin","12317"
"16428","North East","Erie","12279"
"17241","Newville","Cumberland","12127"
"15668","Murrysville","Westmoreland","12117"
"15209","Pittsburgh","Allegheny","12011"
"19344","Honey Brook","Chester","11988"
"17756","Muncy","Lycoming","11978"
"17003","Annville","Lebanon","11903"
"18431","Honesdale","Wayne","11903"
"18960","Sellersville","Bucks","11898"
"18428","Hawley","Pike","11898"
"18202","Hazleton","Luzerne","11853"
"19030","Fairless Hills","Bucks","11792"
"15232","Pittsburgh","Allegheny","11764"
"19086","Wallingford","Delaware","11746"
"18055","Hellertown","Northampton","11742"
"18657","Tunkhannock","Wyoming","11720"
"18512","Scranton","Lackawanna","11666"
"18014","Bath","Northampton","11660"
"19312","Berwyn","Chester","11618"
"17222","Fayetteville","Franklin","11576"
"17847","Milton","Northumberland","11572"
"19078","Ridley Park","Delaware","11562"
"17551","Millersville","Lancaster","11538"
"16802","University Park","Centre","11485"
"15063","Monongahela","Washington","11481"
"15065","Natrona Heights","Allegheny","11463"
"17319","Etters","York","11440"
"19350","Landenberg","Chester","11424"
"15522","Bedford","Bedford","11402"
"17972","Schuylkill Haven","Schuylkill","11308"
"19129","Philadelphia","Philadelphia","11275"
"19540","Mohnton","Berks","11270"
"19475","Spring City","Chester","11260"
"19526","Hamburg","Berks","11256"
"15003","Ambridge","Beaver","11213"
"18080","Slatington","Lehigh","11211"
"16511","Erie","Erie","11207"
"19352","Lincoln University","Chester","11109"
"17340","Littlestown","Adams","11083"
"16407","Corry","Erie","11034"
"15902","Johnstown","Cambria","10969"
"17313","Dallastown","York","10907"
"19444","Lafayette Hill","Montgomery","10890"
"19118","Philadelphia","Philadelphia","10884"
"17540","Leola","Lancaster","10875"
"17113","Harrisburg","Dauphin","10852"
"15906","Johnstown","Cambria","10803"
"15071","Oakdale","Allegheny","10794"
"18073","Pennsburg","Montgomery","10745"
"19611","Reading","Berks","10720"
"18447","Olyphant","Lackawanna","10692"
"15224","Pittsburgh","Allegheny","10675"
"16412","Edinboro","Erie","10629"
"18031","Breinigsville","Lehigh","10622"
"15207","Pittsburgh","Allegheny","10602"
"17584","Willow Street","Lancaster","10585"
"16441","Waterford","Erie","10562"
"16354","Titusville","Crawford","10539"
"15129","South Park","Allegheny","10495"
"18252","Tamaqua","Schuylkill","10491"
"15037","Elizabeth","Allegheny","10485"
"15963","Windber","Somerset","10476"
"19609","Reading","Berks","10476"
"18840","Sayre","Bradford","10440"
"15211","Pittsburgh","Allegheny","10415"
"15656","Leechburg","Armstrong","10400"
"17702","Williamsport","Lycoming","10384"
"17866","Coal Township","Northumberland","10297"
"17844","Mifflinburg","Union","10296"
"16901","Wellsboro","Tioga","10245"
"15203","Pittsburgh","Allegheny","10151"
"18071","Palmerton","Carbon","10150"
"16214","Clarion","Clarion","10114"
"16866","Philipsburg","Centre","10072"
"19021","Croydon","Bucks","10063"
"18058","Kunkletown","Monroe","10056"
"15084","Tarentum","Allegheny","9995"
"15717","Blairsville","Indiana","9985"
"15208","Pittsburgh","Allegheny","9976"
"19317","Chadds Ford","Delaware","9968"
"15632","Export","Westmoreland","9961"
"19081","Swarthmore","Delaware","9923"
"15137","North Versailles","Allegheny","9884"
"15022","Charleroi","Washington","9821"
"19072","Narberth","Montgomery","9802"
"16415","Fairview","Erie","9596"
"16507","Erie","Erie","9572"
"18929","Jamison","Bucks","9570"
"19004","Bala Cynwyd","Montgomery","9524"
"18222","Drums","Luzerne","9484"
"17363","Stewartstown","York","9476"
"18954","Richboro","Bucks","9453"
"18032","Catasauqua","Lehigh","9399"
"15005","Baden","Beaver","9319"
"18324","Bushkill","Pike","9229"
"19079","Sharon Hill","Delaware","9223"
"15367","Venetia","Washington","9211"
"17872","Shamokin","Northumberland","9202"
"18034","Center Valley","Lehigh","9186"
"17020","Duncannon","Perry","9147"
"17963","Pine Grove","Schuylkill","9043"
"19311","Avondale","Chester","8999"
"15825","Brookville","Jefferson","8920"
"18229","Jim Thorpe","Carbon","8867"
"15931","Ebensburg","Cambria","8834"
"19033","Folsom","Delaware","8826"
"19565","Wernersville","Berks","8801"
"19085","Villanova","Delaware","8778"
"18708","Shavertown","Luzerne","8772"
"17931","Frackville","Schuylkill","8751"
"18848","Towanda","Bradford","8746"
"15690","Vandergrift","Westmoreland","8745"
"19510","Blandon","Berks","8710"
"15658","Ligonier","Westmoreland","8708"
"18651","Plymouth","Luzerne","8693"
"15104","Braddock","Allegheny","8669"
"18088","Walnutport","Northampton","8649"
"17842","Middleburg","Snyder","8625"
"15024","Cheswick","Allegheny","8624"
"18330","Effort","Monroe","8452"
"15204","Pittsburgh","Allegheny","8443"
"17316","East Berlin","Adams","8408"
"19137","Philadelphia","Philadelphia","8347"
"17038","Jonestown","Lebanon","8334"
"15332","Finleyville","Washington","8327"
"15417","Brownsville","Fayette","8320"
"15042","Freedom","Beaver","8309"
"16059","Valencia","Butler","8242"
"17032","Halifax","Dauphin","8123"
"18801","Montrose","Susquehanna","8076"
"19533","Leesport","Berks","8059"
"16055","Sarver","Butler","7996"
"18069","Orefield","Lehigh","7973"
"18518","Old Forge","Lackawanna","7965"
"17059","Mifflintown","Juniata","7943"
"17236","Mercersburg","Franklin","7939"
"19560","Temple","Berks","7886"
"17554","Mountville","Lancaster","7877"
"15074","Rochester","Beaver","7874"
"15131","Mc Keesport","Allegheny","7866"
"16417","Girard","Erie","7861"
"17320","Fairfield","Adams","7861"
"15537","Everett","Bedford","7836"
"19343","Glenmoore","Chester","7810"
"18037","Coplay","Lehigh","7806"
"15683","Scottdale","Westmoreland","7638"
"19075","Oreland","Montgomery","7632"
"18078","Schnecksville","Lehigh","7621"
"18210","Albrightsville","Carbon","7614"
"17327","Glen Rock","York","7590"
"15085","Trafford","Westmoreland","7586"
"16438","Union City","Erie","7568"
"16226","Ford City","Armstrong","7567"
"17345","Manchester","York","7551"
"17555","Narvon","Lancaster","7547"
"17368","Wrightsville","York","7539"
"19506","Bernville","Berks","7466"
"18472","Waymart","Wayne","7466"
"17578","Stevens","Lancaster","7438"
"17102","Harrisburg","Dauphin","7434"
"19365","Parkesburg","Chester","7431"
"15126","Imperial","Allegheny","7411"
"17851","Mount Carmel","Northumberland","7405"
"18328","Dingmans Ferry","Pike","7377"
"17547","Marietta","Lancaster","7377"
"15062","Monessen","Westmoreland","7344"
"17921","Ashland","Schuylkill","7321"
"17857","Northumberland","Northumberland","7306"
"16870","Port Matilda","Centre","7298"
"17074","Newport","Perry","7296"
"18106","Allentown","Lehigh","7265"
"18644","Wyoming","Luzerne","7245"
"17777","Watsontown","Northumberland","7211"
"17061","Millersburg","Dauphin","7188"
"15021","Burgettstown","Washington","7186"
"17349","New Freedom","York","7183"
"17751","Mill Hall","Clinton","7169"
"17360","Seven Valleys","York","7150"
"19095","Wyncote","Montgomery","7070"
"16063","Zelienople","Butler","7005"
"16150","Sharpsville","Mercer","6960"
"17339","Lewisberry","York","6930"
"19070","Morton","Delaware","6924"
"19333","Devon","Chester","6911"
"15145","Turtle Creek","Allegheny","6864"
"18641","Pittston","Luzerne","6829"
"16403","Cambridge Springs","Crawford","6790"
"16401","Albion","Erie","6780"
"16142","New Wilmington","Lawrence","6771"
"17519","East Earl","Lancaster","6762"
"15851","Reynoldsville","Jefferson","6733"
"18621","Hunlock Creek","Luzerne","6728"
"18925","Furlong","Bucks","6692"
"17538","Landisville","Lancaster","6669"
"18403","Archbald","Lackawanna","6653"
"17976","Shenandoah","Schuylkill","6644"
"17347","Mount Wolf","York","6644"
"19032","Folcroft","Delaware","6627"
"17737","Hughesville","Lycoming","6604"
"17961","Orwigsburg","Schuylkill","6590"
"15223","Pittsburgh","Allegheny","6589"
"15748","Homer City","Indiana","6584"
"19076","Prospect Park","Delaware","6555"
"18072","Pen Argyl","Northampton","6550"
"15946","Portage","Cambria","6532"
"16933","Mansfield","Tioga","6518"
"19041","Haverford","Delaware","6494"
"15139","Oakmont","Allegheny","6480"
"15089","West Newton","Westmoreland","6453"
"18433","Jermyn","Lackawanna","6448"
"18066","New Tripoli","Lehigh","6404"
"19301","Paoli","Chester","6375"
"19012","Cheltenham","Montgomery","6328"
"15853","Ridgway","Elk","6318"
"17361","Shrewsbury","York","6315"
"18947","Pipersville","Bucks","6309"
"17314","Delta","York","6304"
"16841","Howard","Centre","6300"
"15627","Derry","Westmoreland","6282"
"16033","Evans City","Butler","6260"
"17579","Strasburg","Lancaster","6236"
"17007","Boiling Springs","Cumberland","6228"
"15133","Mc Keesport","Allegheny","6189"
"19543","Morgantown","Berks","6141"
"16915","Coudersport","Potter","6134"
"17527","Gap","Lancaster","6134"
"18224","Freeland","Luzerne","6134"
"18810","Athens","Bradford","5911"
"15552","Meyersdale","Somerset","5908"
"19074","Norwood","Delaware","5893"
"15478","Smithfield","Fayette","5892"
"16735","Kane","Mckean","5875"
"19025","Dresher","Montgomery","5861"
"17307","Biglerville","Adams","5854"
"19034","Fort Washington","Montgomery","5852"
"19362","Nottingham","Chester","5845"
"18074","Perkiomenville","Montgomery","5836"
"17569","Reinholds","Lancaster","5834"
"16651","Houtzdale","Clearfield","5834"
"17810","Allenwood","Union","5803"
"19127","Philadelphia","Philadelphia","5760"
"17043","Lemoyne","Cumberland","5720"
"19520","Elverson","Chester","5716"
"17322","Felton","York","5705"
"15320","Carmichaels","Greene","5682"
"18847","Susquehanna","Susquehanna","5677"
"17370","York Haven","York","5664"
"19066","Merion Station","Montgomery","5662"
"17090","Shermans Dale","Perry","5645"
"18655","Shickshinny","Luzerne","5625"
"19567","Womelsdorf","Berks","5616"
"17820","Catawissa","Columbia","5616"
"16102","New Castle","Lawrence","5581"
"18011","Alburtis","Lehigh","5580"
"17073","Newmanstown","Lebanon","5566"
"16662","Martinsburg","Blair","5561"
"15110","Duquesne","Allegheny","5543"
"17366","Windsor","York","5472"
"16673","Roaring Spring","Blair","5470"
"17066","Mount Union","Huntingdon","5387"
"18091","Wind Gap","Northampton","5385"
"16314","Cochranton","Crawford","5365"
"19330","Cochranville","Chester","5351"
"15222","Pittsburgh","Allegheny","5348"
"16833","Curwensville","Clearfield","5332"
"17233","Mc Connellsburg","Fulton","5311"
"18661","White Haven","Luzerne","5299"
"16229","Freeport","Armstrong","5269"
"18041","East Greenville","Montgomery","5252"
"19405","Bridgeport","Montgomery","5250"
"15530","Berlin","Somerset","5244"
"15135","Mc Keesport","Allegheny","5223"
"18414","Dalton","Lackawanna","5216"
"15909","Johnstown","Cambria","5201"
"16025","Chicora","Butler","5194"
"16316","Conneaut Lake","Crawford","5159"
"18507","Moosic","Lackawanna","5154"
"16433","Saegertown","Crawford","5148"
"19102","Philadelphia","Philadelphia","5147"
"15824","Brockway","Jefferson","5146"
"15342","Houston","Washington","5084"
"18424","Gouldsboro","Wayne","5046"
"19504","Barto","Berks","4996"
"18421","Forest City","Susquehanna","4981"
"18517","Taylor","Lackawanna","4980"
"15626","Delmont","Westmoreland","4975"
"17728","Cogan Station","Lycoming","4972"
"16239","Marienville","Forest","4952"
"17053","Marysville","Perry","4948"
"15330","Eighty Four","Washington","4945"
"17004","Belleville","Mifflin","4934"
"17841","Mc Clure","Snyder","4926"
"17814","Benton","Columbia","4899"
"16630","Cresson","Cambria","4869"
"17529","Gordonville","Lancaster","4866"
"18452","Peckville","Lackawanna","4853"
"19539","Mertztown","Berks","4848"
"19551","Robesonia","Berks","4844"
"17051","Mc Veytown","Mifflin","4831"
"19373","Thornton","Delaware","4823"
"17509","Christiana","Lancaster","4822"
"18610","Blakeslee","Monroe","4820"
"18419","Factoryville","Wyoming","4786"
"16056","Saxonburg","Butler","4785"
"17922","Auburn","Schuylkill","4772"
"15714","Northern Cambria","Cambria","4742"
"17724","Canton","Bradford","4740"
"15033","Donora","Washington","4721"
"18101","Allentown","Lehigh","4720"
"16947","Troy","Bradford","4699"
"16827","Boalsburg","Centre","4693"
"18334","Long Pond","Monroe","4691"
"17520","East Petersburg","Lancaster","4691"
"16159","West Middlesex","Mercer","4689"
"17948","Mahanoy City","Schuylkill","4677"
"17572","Ronks","Lancaster","4671"
"16121","Farrell","Mercer","4668"
"16424","Linesville","Crawford","4662"
"18519","Dickson City","Lackawanna","4659"
"18054","Green Lane","Montgomery","4653"
"17562","Paradise","Lancaster","4640"
"19031","Flourtown","Montgomery","4618"
"17752","Montgomery","Lycoming","4595"
"15323","Claysville","Washington","4583"
"16037","Harmony","Butler","4573"
"17560","New Providence","Lancaster","4560"
"17324","Gardners","Adams","4549"
"17084","Reedsville","Mifflin","4524"
"16053","Renfrew","Butler","4518"
"18255","Weatherly","Carbon","4509"
"17301","Abbottstown","Adams","4479"
"17516","Conestoga","Lancaster","4469"
"17062","Millerstown","Perry","4462"
"15419","California","Washington","4460"
"16023","Cabot","Butler","4460"
"17954","Minersville","Schuylkill","4460"
"16828","Centre Hall","Centre","4427"
"17501","Akron","Lancaster","4425"
"19547","Oley","Berks","4417"
"15045","Glassport","Allegheny","4371"
"19541","Mohrsville","Berks","4366"
"15681","Saltsburg","Indiana","4363"
"18426","Greentown","Pike","4304"
"18343","Mount Bethel","Northampton","4255"
"15059","Midland","Beaver","4239"
"17018","Dauphin","Dauphin","4239"
"16242","New Bethlehem","Clarion","4233"
"16693","Williamsburg","Blair","4228"
"17068","New Bloomfield","Perry","4223"
"17048","Lykens","Dauphin","4220"
"16423","Lake City","Erie","4204"
"16232","Knox","Clarion","4201"
"15834","Emporium","Cameron","4180"
"18853","Wyalusing","Bradford","4179"
"18977","Washington Crossing","Bucks","4172"
"17960","New Ringgold","Schuylkill","4114"
"17026","Fredericksburg","Lebanon","4105"
"15461","Masontown","Fayette","4100"
"17563","Peach Bottom","Lancaster","4094"
"16875","Spring Mills","Centre","4081"
"17372","York Springs","Adams","4075"
"18336","Matamoras","Pike","4075"
"16625","Claysburg","Blair","4060"
"19094","Woodlyn","Delaware","4060"
"15431","Dunbar","Fayette","4053"
"15144","Springdale","Allegheny","4036"
"16749","Smethport","Mckean","4031"
"19029","Essington","Delaware","4013"
"17240","Newburg","Cumberland","4001"
"18642","Duryea","Luzerne","3998"
"15233","Pittsburgh","Allegheny","3994"
"15940","Loretto","Cambria","3964"
"18326","Cresco","Monroe","3956"
"17846","Millville","Columbia","3912"
"17824","Elysburg","Northumberland","3889"
"18344","Mount Pocono","Monroe","3879"
"18240","Nesquehoning","Carbon","3862"
"18434","Jessup","Lackawanna","3859"
"15312","Avella","Washington","3849"
"17252","Saint Thomas","Franklin","3844"
"18618","Harveys Lake","Luzerne","3843"
"15531","Boswell","Somerset","3834"
"16743","Port Allegany","Mckean","3808"
"18635","Nescopeck","Luzerne","3797"
"18232","Lansford","Carbon","3796"
"15636","Harrison City","Westmoreland","3790"
"17065","Mount Holly Springs","Cumberland","3782"
"16134","Jamestown","Mercer","3774"
"16858","Morrisdale","Clearfield","3737"
"18660","Wapwallopen","Luzerne","3732"
"18249","Sugarloaf","Luzerne","3722"
"17028","Grantville","Dauphin","3703"
"19022","Crum Lynne","Delaware","3696"
"17049","Mc Alisterville","Juniata","3609"
"15473","Perryopolis","Fayette","3608"
"15610","Acme","Westmoreland","3604"
"16038","Harrisville","Butler","3592"
"15901","Johnstown","Cambria","3572"
"17344","Mc Sherrystown","Adams","3567"
"15314","Bentleyville","Washington","3560"
"19555","Shoemakersville","Berks","3554"
"16426","Mc Kean","Erie","3548"
"16345","Russell","Warren","3541"
"19505","Bechtelsville","Berks","3540"
"18834","New Milford","Susquehanna","3506"
"17023","Elizabethville","Dauphin","3500"
"16925","Gillett","Bradford","3484"
"15943","Nanty Glo","Cambria","3476"
"17364","Thomasville","York","3474"
"15846","Kersey","Elk","3462"
"15935","Hollsopple","Somerset","3460"
"19035","Gladwyne","Montgomery","3453"
"18701","Wilkes Barre","Luzerne","3449"
"16404","Centerville","Crawford","3433"
"18051","Fogelsville","Lehigh","3429"
"15728","Clymer","Indiana","3429"
"17747","Loganton","Clinton","3426"
"17353","Orrtanna","Adams","3410"
"15026","Clinton","Allegheny","3406"
"15541","Friedens","Somerset","3403"
"18972","Upper Black Eddy","Bucks","3386"
"15557","Rockwood","Somerset","3375"
"17834","Kulpmont","Northumberland","3374"
"17853","Mount Pleasant Mills","Snyder","3363"
"18237","Mcadoo","Schuylkill","3343"
"16373","Emlenton","Venango","3325"
"16115","Darlington","Beaver","3324"
"19529","Kempton","Berks","3321"
"17045","Liverpool","Perry","3316"
"16668","Patton","Cambria","3307"
"17063","Milroy","Mifflin","3265"
"16254","Shippenville","Clarion","3264"
"15672","New Stanton","Westmoreland","3244"
"16434","Spartansburg","Crawford","3217"
"16346","Seneca","Venango","3214"
"19507","Bethel","Berks","3211"
"18822","Hallstead","Susquehanna","3197"
"15140","Pitcairn","Allegheny","3195"
"17771","Trout Run","Lycoming","3194"
"18092","Zionsville","Lehigh","3192"
"16950","Westfield","Tioga","3190"
"17856","New Columbia","Union","3161"
"15052","Industry","Beaver","3159"
"18446","Nicholson","Wyoming","3156"
"18630","Meshoppen","Wyoming","3146"
"18837","Rome","Bradford","3134"
"15670","New Alexandria","Westmoreland","3125"
"19383","West Chester","Chester","3122"
"16371","Youngsville","Warren","3115"
"15845","Johnsonburg","Elk","3108"
"17970","Saint Clair","Schuylkill","3105"
"17082","Port Royal","Juniata","3097"
"15014","Brackenridge","Allegheny","3090"
"16049","Parker","Armstrong","3080"
"19310","Atglen","Chester","3072"
"16157","Wampum","Lawrence","3071"
"16406","Conneautville","Crawford","3069"
"16666","Osceola Mills","Clearfield","3067"
"16442","Wattsburg","Erie","3061"
"16248","Rimersburg","Clarion","3052"
"17980","Tower City","Schuylkill","3037"
"15563","Stoystown","Somerset","3027"
"15759","Marion Center","Indiana","2997"
"17744","Linden","Lycoming","2996"
"17536","Kirkwood","Lancaster","2987"
"15436","Fairchance","Fayette","2985"
"18250","Summit Hill","Carbon","2943"
"17532","Holtwood","Lancaster","2925"
"15944","New Florence","Westmoreland","2924"
"18372","Tannersville","Monroe","2918"
"16327","Guys Mills","Crawford","2916"
"18709","Luzerne","Luzerne","2914"
"16156","Volant","Lawrence","2912"
"16262","Worthington","Armstrong","2888"
"15697","Youngwood","Westmoreland","2884"
"18076","Red Hill","Montgomery","2882"
"18930","Kintnersville","Bucks","2881"
"15112","East Pittsburgh","Allegheny","2873"
"15456","Lemont Furnace","Fayette","2866"
"15774","Shelocta","Armstrong","2858"
"16617","Bellwood","Blair","2851"
"18038","Danielsville","Northampton","2846"
"15437","Farmington","Fayette","2838"
"16051","Portersville","Butler","2834"
"17859","Orangeville","Columbia","2807"
"18347","Pocono Lake","Monroe","2779"
"18942","Ottsville","Bucks","2773"
"16353","Tionesta","Forest","2753"
"16145","Sandy Lake","Mercer","2750"
"15545","Hyndman","Bedford","2744"
"16116","Edinburg","Lawrence","2741"
"17087","Richland","Lebanon","2739"
"17304","Aspers","Adams","2736"
"16748","Shinglehouse","Potter","2718"
"17981","Tremont","Schuylkill","2713"
"17535","Kinzers","Lancaster","2703"
"16844","Julian","Centre","2699"
"17267","Warfordsburg","Fulton","2697"
"18405","Beach Lake","Wayne","2697"
"17502","Bainbridge","Lancaster","2677"
"15956","South Fork","Cambria","2675"
"17565","Pequea","Lancaster","2675"
"16222","Dayton","Armstrong","2671"
"15050","Hookstown","Beaver","2656"
"17047","Loysville","Perry","2654"
"18623","Laceyville","Wyoming","2645"
"17860","Paxinos","Northumberland","2633"
"16421","Harborcreek","Erie","2618"
"15445","Hopwood","Fayette","2609"
"17329","Glenville","York","2599"
"15510","Somerset","Somerset","2592"
"15046","Crescent","Allegheny","2589"
"16350","Sugar Grove","Warren","2577"
"16061","West Sunbury","Butler","2556"
"18445","Newfoundland","Wayne","2536"
"16052","Prospect","Butler","2534"
"18346","Pocono Summit","Monroe","2534"
"16929","Lawrenceville","Tioga","2529"
"18332","Henryville","Monroe","2527"
"17889","Winfield","Union","2516"
"16611","Alexandria","Huntingdon","2512"
"18322","Brodheadsville","Monroe","2502"
"16738","Lewis Run","Mckean","2498"
"17034","Highspire","Dauphin","2492"
"16678","Saxton","Bedford","2488"
"17967","Ringtown","Schuylkill","2488"
"15148","Wilmerding","Allegheny","2480"
"19043","Holmes","Delaware","2470"
"16641","Gallitzin","Cambria","2464"
"17365","Wellsville","York","2462"
"15554","New Paris","Bedford","2454"
"15926","Central City","Somerset","2452"
"18458","Shohola","Pike","2445"
"15423","Coal Center","Washington","2439"
"17302","Airville","York","2431"
"17094","Thompsontown","Juniata","2427"
"16143","Pulaski","Lawrence","2427"
"17264","Three Springs","Huntingdon","2423"
"18325","Canadensis","Monroe","2417"
"15486","Vanderbilt","Fayette","2411"
"15067","New Eagle","Washington","2406"
"15679","Ruffs Dale","Westmoreland","2400"
"15955","Sidman","Cambria","2392"
"16154","Transfer","Mercer","2390"
"16946","Tioga","Tioga","2389"
"16881","Woodland","Clearfield","2379"
"17772","Turbotville","Northumberland","2377"
"17086","Richfield","Juniata","2377"
"17040","Landisburg","Perry","2376"
"15618","Avonmore","Westmoreland","2371"
"16912","Blossburg","Tioga","2358"
"18077","Riegelsville","Bucks","2349"
"17321","Fawn Grove","York","2347"
"16153","Stoneboro","Mercer","2341"
"16731","Eldred","Mckean","2341"
"15458","Mc Clellandtown","Fayette","2320"
"15938","Lilly","Cambria","2310"
"17938","Hegins","Schuylkill","2308"
"17764","Renovo","Clinton","2294"
"17407","York","York","2292"
"18470","Union Dale","Susquehanna","2283"
"15722","Carrolltown","Cambria","2282"
"15450","La Belle","Fayette","2275"
"16646","Hastings","Cambria","2271"
"17582","Washington Boro","Lancaster","2266"
"17098","Williamstown","Dauphin","2265"
"19562","Topton","Berks","2257"
"15438","Fayette City","Fayette","2256"
"16120","Enon Valley","Lawrence","2245"
"18218","Coaldale","Schuylkill","2245"
"18656","Sweet Valley","Luzerne","2238"
"15724","Cherry Tree","Indiana","2233"
"15958","Summerhill","Cambria","2231"
"16669","Petersburg","Huntingdon","2231"
"15558","Salisbury","Somerset","2225"
"16914","Columbia Cross Roads","Bradford","2224"
"17244","Orrstown","Franklin","2216"
"16123","Fombell","Beaver","2207"
"17864","Port Trevorton","Snyder","2206"
"16822","Beech Creek","Clinton","2202"
"15027","Conway","Beaver","2190"
"15468","New Salem","Fayette","2186"
"18053","Germansville","Lehigh","2182"
"18917","Dublin","Bucks","2178"
"15469","Normalville","Fayette","2174"
"17845","Millmont","Union","2170"
"15535","Clearville","Bedford","2166"
"17309","Brogue","York","2162"
"15954","Seward","Westmoreland","2159"
"18850","Ulster","Bradford","2159"
"16637","East Freedom","Blair","2157"
"16342","Polk","Venango","2139"
"16256","Smicksburg","Indiana","2138"
"15639","Hunker","Westmoreland","2128"
"18615","Falls","Wyoming","2121"
"18614","Dushore","Sullivan","2121"
"16347","Sheffield","Warren","2121"
"16130","Hadley","Mercer","2119"
"15333","Fredericktown","Washington","2114"
"15474","Point Marion","Fayette","2113"
"16041","Karns City","Butler","2112"
"16877","Warriors Mark","Huntingdon","2092"
"15043","Georgetown","Beaver","2091"
"16664","New Enterprise","Bedford","2091"
"17813","Beavertown","Snyder","2074"
"15479","Smithton","Westmoreland","2063"
"16627","Coalport","Clearfield","2063"
"16936","Millerton","Tioga","2008"
"16249","Rural Valley","Armstrong","2005"
"17237","Mont Alto","Franklin","1998"
"16259","Templeton","Armstrong","1994"
"17965","Port Carbon","Schuylkill","1989"
"15424","Confluence","Somerset","1988"
"17027","Grantham","Cumberland","1980"
"19534","Lenhartsville","Berks","1979"
"15442","Grindstone","Fayette","1978"
"16920","Elkland","Tioga","1976"
"17009","Burnham","Mifflin","1958"
"15035","East Mc Keesport","Allegheny","1955"
"16865","Pennsylvania Furnace","Centre","1949"
"15840","Falls Creek","Jefferson","1942"
"15747","Home","Indiana","1941"
"16124","Fredonia","Mercer","1938"
"17101","Harrisburg","Dauphin","1936"
"17024","Elliottsburg","Perry","1935"
"18844","Springville","Susquehanna","1933"
"15428","Dawson","Fayette","1929"
"17876","Shamokin Dam","Snyder","1919"
"17830","Herndon","Northumberland","1913"
"18214","Barnesville","Schuylkill","1908"
"16034","Fenelton","Butler","1906"
"16872","Rebersburg","Centre","1893"
"18833","New Albany","Bradford","1888"
"15480","Smock","Fayette","1887"
"19372","Thorndale","Chester","1886"
"15521","Alum Bank","Bedford","1878"
"16258","Strattanville","Clarion","1876"
"16922","Galeton","Potter","1868"
"16374","Kennerdell","Venango","1846"
"15559","Schellsburg","Bedford","1839"
"17058","Mifflin","Juniata","1832"
"16341","Pleasantville","Venango","1831"
"16501","Erie","Erie","1829"
"16838","Grampian","Clearfield","1792"
"18832","Monroeton","Bradford","1791"
"15942","Mineral Point","Cambria","1789"
"15338","Greensboro","Greene","1785"
"16435","Springboro","Crawford","1785"
"16313","Clarendon","Warren","1776"
"18617","Glen Lyon","Luzerne","1766"
"15928","Davidsville","Somerset","1762"
"16878","West Decatur","Clearfield","1756"
"16650","Hopewell","Bedford","1749"
"18629","Mehoopany","Wyoming","1749"
"17224","Fort Loudon","Franklin","1743"
"17505","Bird In Hand","Lancaster","1742"
"15376","West Alexander","Washington","1734"
"19453","Mont Clare","Montgomery","1732"
"15034","Dravosburg","Allegheny","1730"
"15322","Clarksville","Greene","1728"
"16410","Cranesville","Erie","1727"
"15550","Manns Choice","Bedford","1719"
"15360","Scenery Hill","Washington","1711"
"15952","Salix","Cambria","1706"
"16340","Pittsfield","Warren","1705"
"15327","Dilliner","Greene","1696"
"17238","Needmore","Fulton","1685"
"18321","Bartonsville","Monroe","1682"
"15923","Bolivar","Westmoreland","1672"
"15464","Mill Run","Fayette","1672"
"15459","Markleysburg","Fayette","1657"
"17052","Mapleton Depot","Huntingdon","1635"
"17886","West Milton","Union","1630"
"16563","Erie","Erie","1626"
"18955","Richlandtown","Bucks","1624"
"15864","Summerville","Jefferson","1623"
"16133","Jackson Center","Mercer","1621"
"16028","East Brady","Clarion","1615"
"17518","Drumore","Lancaster","1615"
"18350","Pocono Pines","Monroe","1612"
"16141","New Galilee","Beaver","1609"
"15725","Clarksburg","Indiana","1602"
"17935","Girardville","Schuylkill","1595"
"16411","East Springfield","Erie","1590"
"15772","Rossiter","Indiana","1589"
"17017","Dalmatia","Northumberland","1589"
"17721","Avis","Clinton","1579"
"15349","Mount Morris","Greene","1576"
"18854","Wysox","Bradford","1576"
"16255","Sligo","Clarion","1573"
"15311","Amity","Washington","1566"
"15732","Creekside","Indiana","1563"
"15665","Manor","Westmoreland","1557"
"18812","Brackney","Susquehanna","1557"
"17929","Cressona","Schuylkill","1554"
"18219","Conyngham","Luzerne","1554"
"17983","Valley View","Schuylkill","1543"
"16240","Mayport","Clarion","1541"
"16948","Ulysses","Potter","1540"
"15757","Mahaffey","Clearfield","1538"
"16639","Fallentimber","Cambria","1534"
"15533","Breezewood","Bedford","1531"
"15357","Rices Landing","Greene","1526"
"16351","Tidioute","Warren","1518"
"19503","Bally","Berks","1518"
"15321","Cecil","Washington","1517"
"16112","Bessemer","Lawrence","1512"
"15637","Herminie","Westmoreland","1507"
"18355","Scotrun","Monroe","1501"
"16923","Genesee","Potter","1482"
"15765","Penn Run","Indiana","1480"
"16928","Knoxville","Tioga","1479"
"15019","Bulger","Washington","1476"
"17262","Spring Run","Franklin","1455"
"16667","Osterburg","Bedford","1454"
"16655","Imler","Bedford","1451"
"17878","Stillwater","Columbia","1443"
"15729","Commodore","Indiana","1443"
"17881","Trevorton","Northumberland","1424"
"18824","Hop Bottom","Susquehanna","1422"
"18826","Kingsley","Susquehanna","1404"
"18821","Great Bend","Susquehanna","1404"
"18464","Tafton","Pike","1401"
"15345","Marianna","Washington","1399"
"15329","Prosperity","Washington","1397"
"17774","Unityville","Lycoming","1388"
"17093","Summerdale","Cumberland","1386"
"16657","James Creek","Huntingdon","1380"
"15829","Corsica","Jefferson","1380"
"15622","Champion","Westmoreland","1379"
"16319","Cranberry","Venango","1374"
"16050","Petrolia","Butler","1373"
"16613","Ashville","Cambria","1370"
"17959","New Philadelphia","Schuylkill","1362"
"18465","Thompson","Susquehanna","1358"
"15868","Weedville","Elk","1357"
"17352","New Park","York","1348"
"16874","Snow Shoe","Centre","1327"
"16820","Aaronsburg","Centre","1327"
"15344","Jefferson","Greene","1323"
"16317","Cooperstown","Venango","1321"
"16360","Townville","Crawford","1305"
"18438","Lakeville","Wayne","1298"
"16720","Austin","Potter","1294"
"16656","Irvona","Clearfield","1293"
"18216","Beaver Meadows","Carbon","1289"
"18425","Greeley","Pike","1276"
"15475","Republic","Fayette","1276"
"15142","Presto","Allegheny","1271"
"16364","Venus","Venango","1261"
"15865","Sykesville","Jefferson","1259"
"17823","Dornsife","Northumberland","1258"
"17812","Beaver Springs","Snyder","1258"
"15673","North Apollo","Armstrong","1252"
"16111","Atlantic","Crawford","1249"
"16746","Roulette","Potter","1248"
"18503","Scranton","Lackawanna","1247"
"16443","West Springfield","Erie","1247"
"18636","Noxen","Wyoming","1246"
"15848","Luthersburg","Clearfield","1241"
"19501","Adamstown","Lancaster","1239"
"16930","Liberty","Tioga","1237"
"17765","Roaring Branch","Tioga","1236"
"15015","Bradfordwoods","Allegheny","1225"
"18415","Damascus","Wayne","1222"
"16224","Fairmount City","Clarion","1221"
"15340","Hickory","Washington","1217"
"15936","Hooversville","Somerset","1215"
"17229","Hustontown","Fulton","1206"
"17985","Zion Grove","Schuylkill","1204"
"15870","Wilcox","Elk","1198"
"18923","Fountainville","Bucks","1197"
"15823","Brockport","Elk","1194"
"16695","Woodbury","Bedford","1193"
"17243","Orbisonia","Huntingdon","1193"
"15687","Stahlstown","Westmoreland","1187"
"18831","Milan","Bradford","1180"
"18631","Mifflinville","Columbia","1180"
"15688","Tarrs","Westmoreland","1179"
"16935","Middlebury Center","Tioga","1177"
"16235","Lucinda","Clarion","1157"
"15849","Penfield","Clearfield","1155"
"17228","Harrisonville","Fulton","1154"
"16020","Boyers","Butler","1153"
"15056","Leetsdale","Allegheny","1136"
"16218","Cowansville","Armstrong","1135"
"17868","Riverside","Northumberland","1135"
"15030","Creighton","Allegheny","1130"
"17260","Shirleysburg","Huntingdon","1123"
"19437","Gwynedd Valley","Montgomery","1122"
"18211","Andreas","Schuylkill","1115"
"18818","Friendsville","Susquehanna","1115"
"17255","Shade Gap","Huntingdon","1114"
"16917","Covington","Tioga","1112"
"17006","Blain","Perry","1105"
"15631","Everson","Fayette","1102"
"16444","Edinboro","Erie","1101"
"18846","Sugar Run","Bradford","1099"
"16836","Frenchville","Clearfield","1098"
"15451","Lake Lynn","Fayette","1095"
"17060","Mill Creek","Huntingdon","1095"
"15410","Adah","Fayette","1092"
"15924","Cairnbrook","Somerset","1087"
"19374","Toughkenamon","Chester","1086"
"16233","Leeper","Clarion","1084"
"15860","Sigel","Jefferson","1077"
"18254","Tresckow","Carbon","1073"
"15542","Garrett","Somerset","1064"
"15427","Daisytown","Washington","1056"
"15692","Westmoreland City","Westmoreland","1047"
"16740","Mount Jewett","Mckean","1034"
"18085","Tatamy","Northampton","1032"
"17099","Yeagertown","Mifflin","1031"
"17855","New Berlin","Union","1031"
"16040","Hilliards","Butler","1023"
"18417","Equinunk","Wayne","1018"
"17037","Ickesburg","Perry","1006"
"16045","Lyndora","Butler","996"
"15225","Pittsburgh","Allegheny","993"
"15742","Glen Campbell","Indiana","991"
"15055","Lawrence","Washington","986"
"16636","Dysart","Cambria","982"
"17758","Muncy Valley","Sullivan","981"
"16131","Hartstown","Crawford","979"
"18453","Pleasant Mount","Wayne","978"
"18059","Laurys Station","Lehigh","973"
"16845","Karthaus","Clearfield","970"
"18370","Swiftwater","Monroe","969"
"16362","Utica","Venango","968"
"15716","Black Lick","Indiana","967"
"17016","Cornwall","Lebanon","963"
"15927","Colver","Cambria","956"
"17550","Maytown","Lancaster","953"
"17235","Marion","Franklin","949"
"17088","Schaefferstown","Lebanon","943"
"18087","Trexlertown","Lehigh","942"
"17035","Honey Grove","Juniata","934"
"16210","Adrian","Armstrong","931"
"18070","Palm","Montgomery","922"
"16729","Duke Center","Mckean","917"
"18056","Hereford","Berks","916"
"15762","Nicktown","Cambria","905"
"15534","Buffalo Mills","Bedford","903"
"15675","Penn","Westmoreland","895"
"16440","Venango","Crawford","888"
"16926","Granville Summit","Bradford","886"
"15352","New Freeport","Greene","880"
"15049","Harwick","Allegheny","878"
"15736","Elderton","Armstrong","875"
"15018","Buena Vista","Allegheny","874"
"16661","Madera","Clearfield","873"
"15771","Rochester Mills","Indiana","871"
"16932","Mainesburg","Tioga","867"
"16436","Spring Creek","Warren","865"
"17030","Gratz","Dauphin","859"
"16402","Bear Lake","Warren","855"
"17021","East Waterford","Juniata","855"
"15856","Rockton","Clearfield","852"
"15433","East Millsboro","Fayette","851"
"15779","Torrance","Westmoreland","846"
"18086","Treichlers","Northampton","841"
"19009","Bryn Athyn","Montgomery","840"
"18435","Lackawaxen","Pike","835"
"18354","Sciota","Monroe","834"
"16942","Osceola","Tioga","830"
"18352","Reeders","Monroe","823"
"15684","Slickville","Westmoreland","821"
"17936","Gordon","Schuylkill","821"
"19358","Modena","Chester","820"
"17214","Blue Ridge Summit","Franklin","819"
"17002","Allensville","Mifflin","815"
"15331","Ellsworth","Washington","808"
"15676","Pleasant Unity","Westmoreland","807"
"17832","Marion Heights","Northumberland","803"
"17964","Pitman","Schuylkill","801"
"16405","Columbus","Warren","801"
"17097","Wiconisco","Dauphin","801"
"16839","Grassflat","Clearfield","800"
"18371","Tamiment","Pike","796"
"15341","Holbrook","Greene","796"
"15347","Meadow Lands","Washington","795"
"17064","Mount Gretna","Lebanon","788"
"18915","Colmar","Montgomery","784"
"15686","Spring Church","Armstrong","780"
"15477","Roscoe","Washington","779"
"17581","Terre Hill","Lancaster","775"
"17941","Klingerstown","Schuylkill","772"
"15611","Adamsburg","Westmoreland","771"
"15754","Lucernemines","Indiana","770"
"18241","Nuremberg","Schuylkill","769"
"16679","Six Mile Run","Bedford","767"
"15961","Vintondale","Cambria","766"
"16546","Erie","Erie","762"
"15629","East Vandergrift","Westmoreland","761"
"18851","Warren Center","Bradford","755"
"15364","Sycamore","Greene","752"
"18079","Slatedale","Lehigh","751"
"15551","Markleton","Somerset","746"
"15362","Spraggs","Greene","743"
"16160","West Pittsburg","Lawrence","743"
"16029","East Butler","Butler","742"
"16136","Koppel","Beaver","740"
"16726","Cyclone","Mckean","737"
"15060","Midway","Washington","735"
"17212","Big Cove Tannery","Fulton","734"
"15678","Rillton","Westmoreland","731"
"16829","Clarence","Centre","730"
"15076","Russellton","Allegheny","726"
"16621","Broad Top","Huntingdon","716"
"19436","Gwynedd","Montgomery","711"
"15775","Spangler","Cambria","711"
"15377","West Finley","Washington","705"
"15628","Donegal","Westmoreland","704"
"16938","Morris","Tioga","696"
"15538","Fairhope","Somerset","695"
"18829","Le Raysville","Bradford","693"
"18970","Trumbauersville","Bucks","693"
"15083","Sutersville","Westmoreland","692"
"16674","Robertsdale","Huntingdon","689"
"15351","Nemacolin","Greene","684"
"15470","Ohiopyle","Fayette","683"
"16647","Hesston","Huntingdon","682"
"17850","Montandon","Northumberland","680"
"15358","Richeyville","Washington","678"
"17827","Freeburg","Snyder","672"
"15920","Armagh","Indiana","672"
"16640","Flinton","Cambria","670"
"18473","White Mills","Wayne","670"
"17265","Upperstrasburg","Franklin","667"
"18471","Waverly","Lackawanna","667"
"15937","Jerome","Somerset","667"
"19345","Immaculata","Chester","661"
"18342","Mountainhome","Monroe","660"
"16692","Westover","Clearfield","655"
"19319","Cheyney","Delaware","655"
"15671","New Derry","Westmoreland","655"
"17317","East Prospect","York","649"
"17760","North Bend","Clinton","648"
"16863","Olanta","Clearfield","648"
"18451","Paupack","Pike","646"
"15661","Loyalhanna","Westmoreland","646"
"16420","Grand Valley","Warren","634"
"16114","Clarks Mills","Mercer","627"
"17213","Blairs Mills","Huntingdon","627"
"15957","Strongstown","Indiana","626"
"15363","Strabane","Washington","625"
"15007","Bakerstown","Allegheny","623"
"15633","Forbes Road","Westmoreland","618"
"16854","Millheim","Centre","614"
"15411","Addison","Somerset","613"
"18030","Bowmanstown","Carbon","610"
"15698","Yukon","Westmoreland","609"
"19545","New Berlinville","Berks","608"
"18335","Marshalls Creek","Monroe","606"
"16161","Wheatland","Mercer","606"
"18351","Portland","Northampton","600"
"17840","Locust Gap","Northumberland","598"
"18830","Little Meadows","Susquehanna","598"
"15337","Graysville","Greene","595"
"18327","Delaware Water Gap","Monroe","594"
"16851","Lemont","Centre","593"
"15640","Hutchinson","Westmoreland","589"
"15623","Claridge","Westmoreland","584"
"18616","Forksville","Sullivan","583"
"16843","Hyde","Clearfield","578"
"17221","Fannettsburg","Franklin","577"
"15462","Melcroft","Fayette","573"
"17263","State Line","Franklin","573"
"16343","Reno","Venango","571"
"16859","Moshannon","Centre","566"
"18333","Kresgeville","Monroe","554"
"16623","Cassville","Huntingdon","553"
"15948","Revloc","Cambria","552"
"16745","Rixford","Mckean","552"
"19550","Rehrersburg","Berks","549"
"15624","Crabtree","Westmoreland","545"
"16250","Sagamore","Armstrong","544"
"15380","Wind Ridge","Greene","544"
"15078","Slovan","Washington","541"
"18632","Mildred","Sullivan","538"
"18331","Gilbert","Monroe","537"
"19456","Oaks","Montgomery","537"
"15547","Jennerstown","Somerset","537"
"15051","Indianola","Allegheny","536"
"15324","Cokeburg","Washington","528"
"17862","Penns Creek","Snyder","527"
"16832","Coburn","Centre","526"
"15088","West Elizabeth","Allegheny","524"
"15739","Ernest","Indiana","523"
"15004","Atlasburg","Washington","521"
"18626","Laporte","Sullivan","521"
"16311","Carlton","Mercer","516"
"15620","Bradenville","Westmoreland","514"
"15315","Bobtown","Greene","512"
"18932","Line Lexington","Bucks","511"
"16329","Irvine","Warren","511"
"17266","Walnut Bottom","Cumberland","507"
"15951","Saint Michael","Cambria","507"
"15773","Saint Benedict","Cambria","507"
"16750","Turtlepoint","Mckean","505"
"16943","Sabinsville","Tioga","505"
"16840","Hawk Run","Clearfield","504"
"16671","Ramey","Clearfield","504"
"15734","Dixonville","Indiana","502"
"17247","Quincy","Franklin","501"
"18248","Sheppton","Schuylkill","499"
"18439","Lakewood","Wayne","494"
"16927","Harrison Valley","Potter","494"
"15455","Leisenring","Fayette","488"
"19474","Skippack","Montgomery","488"
"18231","Kelayres","Schuylkill","487"
"15412","Allenport","Washington","487"
"15031","Cuddy","Allegheny","486"
"17508","Brownstown","Lancaster","485"
"15413","Allison","Fayette","479"
"15466","Newell","Fayette","479"
"16911","Arnot","Tioga","479"
"15346","Mather","Greene","477"
"16113","Clark","Mercer","475"
"15350","Muse","Washington","471"
"17762","Picture Rocks","Lycoming","469"
"15753","La Jose","Clearfield","468"
"16689","Waterfall","Fulton","466"
"15641","Hyde Park","Westmoreland","466"
"15086","Warrendale","Allegheny","462"
"16826","Blanchard","Centre","461"
"15660","Lowber","Westmoreland","460"
"19536","Lyon Station","Berks","459"
"16344","Rouseville","Venango","458"
"15432","Dunlevy","Washington","457"
"17318","Emigsville","York","455"
"17982","Tuscarora","Schuylkill","452"
"15695","Wyano","Westmoreland","451"
"16372","Clintonville","Venango","448"
"15663","Madison","Westmoreland","447"
"18980","Wycombe","Bucks","445"
"15949","Robinson","Indiana","444"
"17211","Artemas","Bedford","439"
"17923","Branchdale","Schuylkill","438"
"18443","Milanville","Wayne","436"
"15711","Anita","Jefferson","435"
"15536","Crystal Spring","Fulton","434"
"16238","Manorville","Armstrong","434"
"17953","Middleport","Schuylkill","427"
"15715","Big Run","Jefferson","424"
"15435","Fairbank","Fayette","424"
"16228","Ford Cliff","Armstrong","424"
"18239","Milnesville","Luzerne","423"
"15006","Bairdford","Allegheny","423"
"15420","Cardale","Fayette","422"
"15634","Grapeville","Westmoreland","421"
"16230","Hawthorn","Clarion","419"
"19559","Strausstown","Berks","419"
"17835","Laurelton","Union","415"
"17220","Dry Run","Franklin","415"
"17606","Lancaster","Lancaster","413"
"15612","Alverton","Westmoreland","413"
"15489","West Leisenring","Fayette","413"
"15546","Jenners","Somerset","411"
"16879","Winburne","Clearfield","411"
"16422","Harmonsburg","Crawford","410"
"16921","Gaines","Tioga","408"
"18083","Stockertown","Northampton","408"
"15430","Dickerson Run","Fayette","406"
"15750","Josephine","Indiana","406"
"17219","Doylesburg","Franklin","406"
"17081","Plainfield","Cumberland","406"
"18625","Lake Winola","Wyoming","404"
"17249","Rockhill Furnace","Huntingdon","401"
"16868","Pine Grove Mills","Centre","400"
"19554","Shartlesville","Berks","396"
"17934","Gilberton","Schuylkill","395"
"15483","Stockdale","Washington","393"
"18063","Martins Creek","Northampton","391"
"19523","Geigertown","Berks","390"
"16132","Hillsville","Lawrence","390"
"17930","Cumbola","Schuylkill","387"
"16882","Woodward","Centre","387"
"17041","Lawn","Lebanon","386"
"16022","Bruin","Butler","386"
"17779","Woolrich","Clinton","386"
"15490","White","Fayette","384"
"15368","Vestaburg","Washington","383"
"16326","Fryburg","Clarion","380"
"15696","Youngstown","Westmoreland","378"
"15960","Twin Rocks","Cambria","378"
"16054","Saint Petersburg","Clarion","377"
"15539","Fishertown","Bedford","377"
"16260","Vowinckel","Clarion","377"
"17272","Zullinger","Franklin","376"
"16244","Nu Mine","Armstrong","376"
"16848","Lamar","Clinton","375"
"17010","Campbelltown","Lebanon","373"
"18456","Prompton","Wayne","371"
"15313","Beallsville","Washington","370"
"17925","Brockton","Schuylkill","364"
"16620","Brisbin","Clearfield","358"
"15615","Ardara","Westmoreland","357"
"17306","Bendersville","Adams","353"
"15054","Langeloth","Washington","351"
"15038","Elrama","Washington","351"
"16634","Dudley","Huntingdon","348"
"15677","Rector","Westmoreland","346"
"16328","Hydetown","Crawford","346"
"15081","South Heights","Beaver","344"
"15841","Force","Elk","342"
"15713","Aultman","Indiana","341"
"16110","Adamsville","Crawford","340"
"19492","Zieglerville","Montgomery","339"
"18828","Lawton","Susquehanna","339"
"17005","Berrysburg","Dauphin","339"
"15444","Hiller","Fayette","338"
"17920","Aristes","Columbia","338"
"16683","Spruce Creek","Huntingdon","337"
"16677","Sandy Ridge","Centre","337"
"17768","Shunk","Sullivan","336"
"15429","Denbo","Washington","332"
"18962","Silverdale","Bucks","331"
"15325","Crucible","Greene","330"
"15449","Keisterville","Fayette","330"
"16665","Newry","Blair","328"
"16334","Marble","Clarion","327"
"18256","Weston","Luzerne","325"
"16852","Madisonburg","Centre","321"
"16821","Allport","Clearfield","321"
"17080","Pillow","Dauphin","320"
"18845","Stevensville","Bradford","317"
"19549","Port Clinton","Schuylkill","313"
"16619","Blandburg","Cambria","313"
"18349","Pocono Manor","Monroe","312"
"16212","Cadogan","Armstrong","312"
"15617","Arona","Westmoreland","311"
"16333","Ludlow","Mckean","309"
"18817","East Smithfield","Bradford","308"
"18462","Starrucca","Wayne","305"
"16861","New Millport","Clearfield","303"
"15847","Knox Dale","Jefferson","300"
"16691","Wells Tannery","Fulton","299"
"17957","Muir","Schuylkill","299"
"16030","Eau Claire","Butler","297"
"18461","Starlight","Wayne","295"
"16680","Smithmill","Clearfield","292"
"15482","Star Junction","Fayette","290"
"15710","Alverda","Indiana","289"
"16236","Mc Grann","Armstrong","288"
"17215","Burnt Cabins","Fulton","286"
"17749","Mc Ewensville","Northumberland","286"
"17978","Spring Glen","Schuylkill","286"
"18244","Parryville","Carbon","284"
"17888","Wilburton","Columbia","281"
"17974","Seltzer","Schuylkill","281"
"17253","Saltillo","Huntingdon","281"
"16834","Drifting","Clearfield","280"
"18912","Buckingham","Bucks","280"
"16939","Morris Run","Tioga","279"
"16633","Defiance","Bedford","278"
"17261","South Mountain","Franklin","277"
"15348","Millsboro","Washington","277"
"15434","Elco","Washington","274"
"17952","Mary D","Schuylkill","274"
"17576","Smoketown","Lancaster","272"
"19017","Chester Heights","Delaware","271"
"18246","Rock Glen","Luzerne","270"
"15361","Southview","Washington","268"
"16725","Custer City","Mckean","268"
"16876","Wallaceton","Clearfield","267"
"15310","Aleppo","Greene","265"
"17776","Waterville","Lycoming","264"
"18245","Quakake","Schuylkill","264"
"16734","James City","Elk","264"
"15520","Acosta","Somerset","264"
"16847","Kylertown","Clearfield","263"
"16263","Yatesboro","Armstrong","261"
"18220","Delano","Schuylkill","260"
"17355","Railroad","York","259"
"17271","Willow Hill","Franklin","259"
"16659","Loysburg","Bedford","259"
"17968","Sacramento","Schuylkill","259"
"18619","Hillsgrove","Sullivan","259"
"15866","Troutville","Clearfield","259"
"16246","Plumville","Indiana","257"
"16825","Bigler","Clearfield","257"
"16027","Connoquenessing","Butler","256"
"15064","Morgan","Allegheny","256"
"15827","Byrnedale","Elk","255"
"15770","Ringgold","Jefferson","255"
"18624","Lake Harmony","Carbon","254"
"18469","Tyler Hill","Wayne","252"
"18842","South Gibson","Susquehanna","252"
"18081","Springtown","Bucks","251"
"16727","Derrick City","Mckean","250"
"18225","Harleigh","Luzerne","249"
"17072","New Kingstown","Cumberland","244"
"17829","Hartleton","Union","244"
"18602","Bear Creek","Luzerne","241"
"15562","Springs","Somerset","238"
"19316","Brandamore","Chester","238"
"17731","Eagles Mere","Sullivan","238"
"17951","Mar Lin","Schuylkill","238"
"16732","Gifford","Mckean","238"
"16849","Lanse","Clearfield","236"
"18463","Sterling","Wayne","236"
"15662","Luxor","Westmoreland","235"
"16370","West Hickory","Forest","234"
"17223","Fort Littleton","Fulton","233"
"16024","Callery","Butler","232"
"18920","Erwinna","Bucks","232"
"17730","Dewart","Northumberland","229"
"15832","Driftwood","Cameron","227"
"17887","White Deer","Union","227"
"15647","Larimer","Westmoreland","223"
"17949","Mahanoy Plane","Schuylkill","222"
"15922","Belsano","Cambria","222"
"16940","Nelson","Tioga","222"
"17217","Concord","Franklin","220"
"17239","Neelyton","Huntingdon","219"
"15689","United","Westmoreland","218"
"15448","Jacobs Creek","Westmoreland","218"
"16624","Chest Springs","Cambria","218"
"17836","Leck Kill","Northumberland","217"
"15745","Heilwood","Indiana","217"
"15712","Arcadia","Indiana","217"
"17246","Pleasant Hall","Franklin","216"
"17371","York New Salem","York","216"
"15028","Coulters","Allegheny","216"
"18950","Point Pleasant","Bucks","215"
"16672","Riddlesburg","Bedford","214"
"18628","Lopez","Sullivan","214"
"16245","Oak Ridge","Armstrong","213"
"15828","Clarington","Forest","212"
"15764","Oliveburg","Jefferson","212"
"18221","Drifton","Luzerne","212"
"17885","Weikert","Union","212"
"18653","Ransom","Lackawanna","211"
"15925","Cassandra","Cambria","211"
"18814","Burlington","Bradford","210"
"15727","Clune","Indiana","209"
"18340","Millrift","Pike","208"
"15863","Stump Creek","Jefferson","208"
"16416","Garland","Warren","206"
"16352","Tiona","Warren","206"
"15446","Indian Head","Fayette","206"
"15646","Jones Mills","Westmoreland","203"
"15756","Mc Intyre","Indiana","203"
"16835","Fleming","Centre","203"
"15443","Hibbs","Fayette","202"
"15693","Whitney","Westmoreland","202"
"18441","Lenoxville","Susquehanna","201"
"18437","Lake Como","Wayne","201"
"17884","Washingtonville","Montour","201"
"16837","Glen Richey","Clearfield","197"
"15075","Rural Ridge","Allegheny","197"
"17979","Summit Station","Schuylkill","197"
"16860","Munson","Clearfield","194"
"15082","Sturgeon","Allegheny","194"
"17311","Codorus","York","193"
"17029","Granville","Mifflin","192"
"15422","Chestnut Ridge","Fayette","191"
"18413","Clifford","Susquehanna","191"
"15953","Seanor","Somerset","190"
"18843","South Montrose","Susquehanna","189"
"15738","Emeigh","Cambria","189"
"17945","Locustdale","Schuylkill","188"
"15731","Coral","Indiana","187"
"18823","Harford","Susquehanna","187"
"17256","Shady Grove","Franklin","186"
"17748","Mc Elhattan","Clinton","186"
"18223","Ebervale","Luzerne","186"
"16622","Calvin","Huntingdon","185"
"15561","Sipesville","Somerset","184"
"15930","Dunlo","Cambria","183"
"16223","Distant","Armstrong","183"
"15366","Van Voorhis","Washington","179"
"15560","Shanksville","Somerset","178"
"18457","Rowland","Pike","178"
"17763","Ralston","Lycoming","178"
"17750","Mackeyville","Clinton","176"
"16427","Mill Village","Erie","176"
"15721","Burnside","Clearfield","176"
"15655","Laughlintown","Westmoreland","176"
"19435","Frederick","Montgomery","175"
"15962","Wilmore","Cambria","173"
"15540","Fort Hill","Somerset","173"
"15760","Marsteller","Cambria","173"
"16744","Rew","Mckean","172"
"18234","Lattimer Mines","Luzerne","171"
"17767","Salona","Clinton","170"
"16140","New Bedford","Lawrence","170"
"17861","Paxtonville","Snyder","169"
"15077","Shippingport","Beaver","165"
"15020","Bunola","Allegheny","165"
"16036","Foxburg","Clarion","164"
"17210","Amberson","Franklin","163"
"16853","Milesburg","Centre","161"
"16733","Hazel Hurst","Mckean","161"
"17778","Westport","Clinton","161"
"15861","Sinnamahoning","Cameron","160"
"17069","New Buffalo","Perry","158"
"15638","Hostetter","Westmoreland","156"
"15778","Timblin","Jefferson","155"
"19564","Virginville","Berks","155"
"15744","Hamilton","Jefferson","153"
"15359","Rogersville","Greene","153"
"16937","Mills","Potter","151"
"15087","Webster","Westmoreland","150"
"16685","Todd","Huntingdon","148"
"15780","Valier","Jefferson","147"
"16035","Forestville","Butler","146"
"16855","Mineral Springs","Clearfield","146"
"17946","Lost Creek","Schuylkill","146"
"16048","North Washington","Butler","142"
"15761","Mentcle","Indiana","140"
"16645","Glen Hope","Clearfield","138"
"15532","Boynton","Somerset","137"
"19511","Bowers","Berks","137"
"17944","Llewellyn","Schuylkill","136"
"15460","Martin","Fayette","136"
"15635","Hannastown","Westmoreland","136"
"17933","Friedensburg","Schuylkill","135"
"15733","De Lancey","Jefferson","135"
"15440","Gibbon Glade","Fayette","134"
"16151","Sheakleyville","Mercer","134"
"19519","Earlville","Berks","134"
"15334","Garards Fort","Greene","132"
"15454","Leckrone","Fayette","131"
"18622","Huntington Mills","Luzerne","130"
"18242","Oneida","Schuylkill","130"
"19477","Spring House","Montgomery","128"
"17880","Swengel","Union","128"
"17865","Potts Grove","Northumberland","128"
"17867","Rebuck","Northumberland","127"
"16616","Beccaria","Clearfield","127"
"16155","Villa Maria","Lawrence","125"
"15463","Merrittstown","Fayette","125"
"15821","Benezett","Elk","125"
"15316","Brave","Greene","123"
"18816","Dimock","Susquehanna","123"
"18212","Ashfield","Carbon","121"
"18427","Hamlin","Wayne","121"
"17071","New Germantown","Perry","121"
"15467","New Geneva","Fayette","119"
"19544","Mount Aetna","Berks","118"
"15544","Gray","Somerset","118"
"16724","Crosby","Mckean","118"
"17570","Rheems","Lancaster","117"
"15680","Salina","Westmoreland","117"
"17507","Bowmansville","Lancaster","117"
"15781","Walston","Jefferson","116"
"15353","Nineveh","Greene","115"
"18460","South Sterling","Wayne","115"
"16213","Callensburg","Clarion","114"
"17943","Lavelle","Schuylkill","113"
"17251","Roxbury","Franklin","111"
"18357","Skytop","Monroe","111"
"18323","Buck Hill Falls","Monroe","111"
"16211","Beyer","Indiana","110"
"15502","Hidden Valley","Somerset","109"
"18356","Shawnee On Delaware","Monroe","109"
"15047","Greenock","Allegheny","107"
"16694","Wood","Bedford","106"
"17077","Ono","Lebanon","106"
"15053","Joffre","Washington","106"
"18455","Preston Park","Wayne","105"
"19542","Monocacy Station","Berks","104"
"15447","Isabella","Fayette","103"
"15484","Uledi","Fayette","103"
"18825","Jackson","Susquehanna","103"
"15746","Hillsdale","Indiana","102"
"17075","Newton Hamilton","Mifflin","100"
"15730","Coolspring","Jefferson","99"
"17083","Quentin","Lebanon","97"
"19113","Philadelphia","Delaware","96"
"16631","Curryville","Blair","96"
"16253","Seminole","Armstrong","95"
"15783","West Lebanon","Indiana","95"
"15472","Oliver","Fayette","94"
"15379","West Middletown","Washington","92"
"15555","Quecreek","Somerset","89"
"15492","Wickhaven","Fayette","89"
"18230","Junedale","Carbon","88"
"19457","Parker Ford","Chester","87"
"17270","Williamson","Franklin","85"
"15476","Ronco","Fayette","83"
"15945","Parkhill","Cambria","81"
"16322","Endeavor","Forest","81"
"17254","Scotland","Franklin","80"
"15621","Calumet","Westmoreland","79"
"15777","Starford","Indiana","78"
"19367","Pomeroy","Chester","76"
"16730","East Smethport","Mckean","76"
"15691","Wendel","Westmoreland","74"
"17727","Cedar Run","Lycoming","74"
"16217","Cooksburg","Forest","73"
"15737","Elmora","Cambria","70"
"15625","Darragh","Westmoreland","70"
"16941","Genesee","Potter","69"
"17039","Kleinfeltersville","Lebanon","67"
"17729","Cross Fork","Potter","63"
"15784","Worthville","Jefferson","62"
"15741","Gipsy","Indiana","62"
"16332","Lickingville","Clarion","61"
"16331","Kossuth","Clarion","58"
"15921","Beaverdale","Cambria","54"
"15776","Sprankle Mills","Jefferson","54"
"15752","Kent","Indiana","54"
"16728","De Young","Elk","52"
"15564","Wellersburg","Somerset","52"
"17723","Jersey Shore","Lycoming","50"
"19538","Maxatawny","Berks","48"
"15421","Chalk Hill","Fayette","48"
"16670","Queen","Bedford","47"
"16321","East Hickory","Forest","47"
"18420","Fleetville","Lackawanna","47"
"17742","Lairdsville","Lycoming","46"
"15378","Westland","Washington","46"
"17056","Mexico","Juniata","45"
"18913","Carversville","Bucks","44"
"16682","Sproul","Blair","39"
"16638","Entriken","Huntingdon","39"
"17343","Mc Knightstown","Adams","35"
"17250","Rouzerville","Franklin","34"
"17739","Jersey Mills","Lycoming","32"
"18105","Allentown","Lehigh","31"
"16871","Pottersdale","Clearfield","30"
"18035","Cherryville","Northampton","29"
"15929","Dilltown","Indiana","28"
"15934","Elton","Cambria","24"
"16361","Tylersburg","Clarion","22"
"18935","Milford Square","Bucks","20"
"18454","Poyntelle","Wayne","17"
"18251","Sybertsville","Luzerne","17"
"15723","Chambersville","Indiana","15"
"17076","Oakland Mills","Juniata","13"
"15072","Pricedale","Westmoreland","11"
"19535","Limekiln","Berks","10"
"19472","Sassamansville","Montgomery","10"
"18430","Herrick Center","Susquehanna","6"
"18459","South Canaan","Wayne","3"
"18936","Montgomeryville","Montgomery","0"
"19375","Unionville","Chester","0"
"19112","Philadelphia","Philadelphia","0"
"19109","Philadelphia","Philadelphia","0"
"17822","Danville","Montour","0"
"18195","Allentown","Lehigh","0"
"18068","Old Zionsville","Lehigh","0"
"18046","East Texas","Lehigh","0"
"18016","Bethlehem","Northampton","0"
"19442","Kimberton","Chester","0"
"15290","Pittsburgh","Allegheny","0"
"15260","Pittsburgh","Allegheny","0"
"15616","Armbrust","Westmoreland","0"
"17120","Harrisburg","Dauphin","0"
"16312","Chandlers Valley","Warren","0"
"16699","Cresson","Cambria","0"